#dP2022  6 16  0  0  0.00000000      96 __u+U ITR00 FIT  IAC
## 2214 345600.00000000   900.00000000 59746 0.0000000000000
+  116   C06C07C08C09C10C11C12C13C14C16C19C20C21C22C23C24C25
+        C26C27C28C29C30C32C33C34C35C36C37C38C39C40C41C42C43
+        C44C45C46E01E02E03E04E05E07E08E09E10E11E12E13E14E15
+        E18E19E21E24E25E26E27E30E31E33E34E36G01G02G03G04G05
+        G06G07G08G09G10G11G12G13G14G15G16G17G18G19G20G21G22
+        G23G24G25G26G27G28G29G30G31G32J02J03R01R02R03R04R05
+        R07R08R09R11R12R13R14R15R17R18R19R20R21R24  0  0  0
++         0  0  0  0  0  0  0  0  0  0  0  0  0  0  0  0  0
++         0  0  0  0  0  0  0  0  0  0  0  0  0  0  0  0  0
++         0  0  0  0  0  0  0  0  0  0  0  0  0  0  0  0  0
++         0  0  0  0  0  0  0  0  0  0  0  0  0  0  0  0  0
++         0  0  0  0  0  0  0  0  0  0  0  0  0  0  0  0  0
++         0  0  0  0  0  0  0  0  0  0  0  0  0  0  0  0  0
++         0  0  0  0  0  0  0  0  0  0  0  0  0  0  0  0  0
%c M  cc GPS ccc cccc cccc cccc cccc ccccc ccccc ccccc ccccc
%c cc cc ccc ccc cccc cccc cccc cccc ccccc ccccc ccccc ccccc
%f  0.0000000  0.000000000  0.00000000000  0.000000000000000
%f  0.0000000  0.000000000  0.00000000000  0.000000000000000
%i    0    0    0    0      0      0      0      0         0
%i    0    0    0    0      0      0      0      0         0
/* INFORMATION & ANALYSIS CENTER (IAC)      ULTRA-RAPID DATA
/* S/V CLOCKS ARE ALIGNED TO GNSS TIME                      
/* G:C1WC2W R:C1PC2P E:C1XC5X C:C2IC6I J:C1CC2S             
/* PCV:IGS14_2196 OL/AL:FES2004  NONE     YN ORB:CoN CLK:CoN
*  2022 06 16  7 45  0.00000000
PC06 -16093.086073  28520.495443 -26659.785934    199.865695
PC07  -6777.535456  40523.782129  -9094.202376   -305.542094
PC08   -325.571421  23673.494798  34920.223840    364.497902
PC09 -10500.638578  27437.724519 -30048.233726   -888.048427
PC10   -805.425298  41796.133613  -2269.057012    125.897482
PC11 -23667.350441  14433.815051   3110.209020    417.527221
PC12 -24056.787005   2322.170851 -13910.402859   -597.430508
PC13   5438.447573  27010.864705  32122.735206     -2.526682
PC14 -12969.903131  16481.762341  18400.559046    504.989684
PC16 -20287.637959  28058.963235 -24060.921013    139.681417
PC19   8119.015769 -24218.664293 -11239.725290    -11.674744
PC20  15175.084911  -8224.625704 -21918.762394   -961.742405
PC21 -13536.746277 -13887.170916  20095.945800   -494.683022
PC22  -3868.342962 -26909.721058   6377.120114   -964.381400
PC23  10313.433628  20093.533439 -16379.280495   -934.696193
PC24 -23386.351546  -1513.992889 -15138.757899   -970.377170
PC25  -8066.223047  14123.019589 -22680.600248   -721.162343
PC26 -24221.377613 -13821.253365   -197.019085    722.782044
PC27  19244.360323   5074.769811  19530.796591    739.757895
PC28   2037.473603  16501.856584  22407.905160     79.145787
PC29  16470.555644 -19156.805320 -11863.876798    569.063762
PC30  25359.824939  -9901.320682   6071.580666    499.960344
PC32  13622.785805  13807.246739 -20039.469046   -968.833293
PC33  -8074.956933  24169.969005  11355.441190   -970.121199
PC34 -25333.151716  10570.263116  -5107.703539   -379.726262
PC35  -1504.026279 -16960.039928 -22117.517040    322.977697
PC36   8952.658301 -13598.133319  22692.419847   -968.333032
PC37  23492.320434  15050.224388   -932.927929   -909.580448
PC38  -9229.854984  21548.854837  35081.215155      3.516890
PC39 -24018.964393  28818.327379 -19393.340652     34.995992
PC40 -12293.312203  38000.330869 -13265.697671    277.843169
PC41   3617.620808  27033.967666  -5833.626631     -6.201084
PC42 -15428.473645   6957.031687  22229.577330   -960.221752
PC43 -17112.305819  18999.183692  11189.679398   -917.882554
PC44 -19362.960891  -4650.944220 -19579.104202    693.955546
PC45 -10638.742918 -20030.464221  16253.200379    784.760284
PC46  22680.860963    288.269261  16284.515864   -381.700036
PE01 -13706.443683 -26218.227505    925.910631   -497.127329
PE02  13818.152629  26173.880117   -751.551643    305.991341
PE03   5111.628110  20265.601807 -20950.899347   -569.329359
PE04 -17949.731697  -2206.135045  23444.689601  -1051.112859
PE05 -11013.385925  26790.937842  -6074.521275   -171.694022
PE07  20467.724773 -17652.553182 -12071.246932   -678.863003
PE08  17937.813177   1812.000081 -23471.616264   -547.466357
PE09 -20342.057742  17766.910063  12102.067685   -555.176547
PE10 -29451.359026   1451.953572   2559.796550   -520.037275
PE11 -25719.858506   7780.231407  12416.030591   3332.582992
PE12 -28325.971483  -4925.770666  -7091.537299    -13.658833
PE13  26088.246714  -7422.649014 -11849.444124    429.315211
PE14   7429.300330 -27601.976116 -14858.342126  -1806.403423
PE15  28272.648317   4916.743750   7242.301319    739.087531
PE18  -8725.729912  20467.210123   8486.429742  -1323.794085
PE19  -2940.097134 -21858.321407  19754.059669  -5359.523559
PE21   -111.030081 -24177.273343  17078.832451   -740.458379
PE24 -15206.452840   6987.668540 -24425.309101   -673.462204
PE25   -108.039702  24040.128049 -17263.169040   -577.760769
PE26   7589.846506 -15614.961938 -23978.076682  -1268.413854
PE27  14502.197270  -8187.435554  24475.761170   -323.261140
PE30  20402.719303  13442.940002  16710.075978   -596.620012
PE31 -20439.882048 -12472.782821 -17392.331627   -498.358088
PE33 -13778.475292 -14292.618860 -21962.603706   -455.588324
PE34  14009.263009  14204.374826  21854.723350   -522.405789
PE36  -8625.203312  15299.888903  23821.969378   -388.828024
PG01 -16117.230517 -13449.975522 -16785.953166    340.291410
PG02  -7183.024460  14636.348537  21647.107195   -652.635415
PG03 -12800.908741 -22915.098159   4333.314362   -280.098865
PG04  -6422.217476 -15154.703794  20836.777402   -156.518496
PG05   4084.655748  24313.547036   9516.346753    -85.715187
PG06 -21366.019651   6749.847596  14384.072733    345.705932
PG07 -25928.595380  -6075.137624   3677.146443    321.665546
PG08    289.358275 -20380.206616 -16879.079250    -72.371737
PG09 -14825.747043  -5317.300617  21322.385297   -327.931339
PG10  14961.606755  -2426.309902 -21689.378812   -456.830649
PG11  -8725.500905  13394.200778  21201.338640    -14.775366
PG12   9055.621460  25010.409187    811.122692   -231.902050
PG13 -10681.193501  21571.677796 -11179.378085    330.880112
PG14 -15841.342684    914.097304 -21310.102774   -111.568373
PG15   2962.410404  20362.392537 -17038.913469    -52.850880
PG16   2557.898676 -22376.279753  13432.544150   -509.293014
PG17 -20504.076127  10854.489926 -12544.960368    625.640870
PG18  25690.611368   6111.558659   3378.425547    140.732394
PG19 -20387.814203  15896.057463  -5812.962316    171.351387
PG20  -3784.217142  19001.406680  18268.113239    511.004083
PG21  -6963.757756 -14684.959378 -20506.032305    161.309088
PG22  18826.824612 -18373.457253  -2456.418194    276.620748
PG23  17531.765474   8923.692807 -17907.426505    -28.278412
PG24  12624.886564  14502.681764 -18789.283233    219.608137
PG25  16660.217243  16400.239875  12570.149727    337.961646
PG26   9071.961974 -14789.128746  19944.764710    212.643160
PG27  11376.645870 -22814.507260  -6893.780285    215.857816
PG28 -11635.423207  10769.930428 -20840.041189    337.395794
PG29  14289.702871   5698.480321  21607.771353   -524.533183
PG30 -25872.498131   1050.495691  -6401.442354   -531.524617
PG31  19963.710154  -8194.213734  15652.897242   -182.002766
PG32  19808.893111 -13506.422155 -11070.934378   -152.462127
PJ02 -20401.489293  21921.203284 -25086.834168     -0.731947
PJ03 -29093.524282  28798.562848  15517.663099     -2.892909
PR01   2327.280071 -24994.849885   4584.499995     10.017926
PR02  -6827.970734 -13805.398459  20360.868009    521.446343
PR03 -11731.979942   4783.788242  22196.012728     58.517032
PR04  -9942.353288  20351.204241  11771.601524    146.693301
PR05  -2870.517144  24823.076327  -5163.347319     94.720791
PR07  11749.205117  -5510.547885 -21909.499980     36.497769
PR08   9833.008041 -20491.150307 -11495.785743    -65.721090
PR09  19454.657318  16432.491896    256.968591     60.744689
PR11   7983.134656  -7516.298420  23043.076779     36.061836
PR12  -8403.250522 -17762.661800  16284.613334     18.879167
PR13 -18961.596164 -17027.927086   1111.996971    -23.644287
PR14 -18735.589709  -5908.267736 -16267.953554     25.229753
PR15  -7411.200477   8159.129676 -22981.040260     95.354414
PR17 -24238.216684   4942.941115  -6143.601559    535.349578
PR18 -20225.560330  11404.409985  10625.927098    120.446494
PR19  -7072.575413  11918.596050  21405.220697   -192.898701
PR20  14113.097547   5441.814849  20525.853308    -72.718172
PR21  24460.837372  -5621.094871   4622.942787   -309.838409
PR24 -14995.274044  -5109.512768 -19978.861257     98.927785
EOF
